,CDSCode,NCESDist,NCESSchool,StatusType,County,District,School,Street,StreetAbr,City,Zip,State,MailStreet,MailStrAbr,MailCity,MailZip,MailState,Phone,Ext,FaxNumber,WebSite,OpenDate,ClosedDate,Charter,CharterNum,FundingType,DOC,DOCType,SOC,SOCType,EdOpsCode,EdOpsName,EILCode,EILName,GSoffered,GSserved,Virtual,Magnet,YearRoundYN,FederalDFCDistrictID,Latitude,Longitude,AdmFName,AdmLName,LastUpDate,Multilingual,school_modified,school_id,school_name
0,,,,,,,,,,,,,,,,,,,,,,,,,,,,,,,,,,,,,,,,,,,,,,,,441.0,Access SFUSD: Bay Street
1,,,,,,,,,,,,,,,,,,,,,,,,,,,,,,,,,,,,,,,,,,,,,,,,442.0,Access SFUSD: The Arc
2,38684786040695.0,0634410,05582,Active,San Francisco,San Francisco Unified,Alamo Elementary,250 23rd Avenue,250 23rd Ave.,San Francisco,94121-2009,CA,250 23rd Avenue,250 23rd Ave.,San Francisco,94121-2009,CA,(415) 750-8456,No Data,(415) 750-8434,No Data,07/01/1980,No Data,N,No Data,No Data,54.0,Unified School District,60,Elementary Schools (Public),TRAD,Traditional,ELEM,Elementary,K-5,K-5,N,N,N,No Data,37.783124,-122.48219,Rosa,Fong,02/09/2023,N,Alamo ES,413.0,Alamo ES
3,38684786040703.0,0634410,05583,Active,San Francisco,San Francisco Unified,Alvarado Elementary,625 Douglas Street,625 Douglas St.,San Francisco,94114-3140,CA,625 Douglas Street,625 Douglas St.,San Francisco,94114-3140,CA,(415) 695-5695,No Data,(415) 695-5447,No Data,07/01/1980,No Data,N,No Data,No Data,54.0,Unified School District,60,Elementary Schools (Public),TRAD,Traditional,ELEM,Elementary,K-5,K-5,N,N,N,No Data,37.753675,-122.43873,Michelle,Sundby,09/17/2024,Y,Alvarado ES,420.0,Alvarado ES
4,38684786062020.0,0634410,05585,Active,San Francisco,San Francisco Unified,Aptos Middle,105 Aptos Avenue,105 Aptos Ave.,San Francisco,94127-2520,CA,105 Aptos Avenue,105 Aptos Ave.,San Francisco,94127-2520,CA,(415) 469-4520,No Data,(415) 333-9038,No Data,07/01/1980,No Data,N,No Data,No Data,54.0,Unified School District,62,Intermediate/Middle Schools (Public),TRAD,Traditional,INTMIDJR,Intermediate/Middle/Junior High,6-8,6-8,N,N,N,No Data,37.730234,-122.46623,Dimitric,Roseboro,09/17/2024,Y,Aptos MS,431.0,Aptos MS
5,38684786040737.0,0634410,05586,Active,San Francisco,San Francisco Unified,Argonne Elementary,680 18th Avenue,680 18th Ave.,San Francisco,94121-3818,CA,680 18th Avenue,680 18th Ave.,San Francisco,94121-3818,CA,(415) 750-8460,No Data,(415) 750-8462,No Data,07/01/1980,No Data,N,No Data,No Data,54.0,Unified School District,60,Elementary Schools (Public),TRAD,Traditional,ELEM,Elementary,K-5,K-5,N,N,N,No Data,37.775150,-122.47679,Amy,Abdallah-Rojas,07/24/2025,N,Argonne ES,435.0,Argonne ES
6,38684783830387.0,0634410,01276,Active,San Francisco,San Francisco Unified,"Asawa (Ruth) SF Sch of the Arts, A Public School",555 Portola Drive,555 Portola Dr.,San Francisco,94131-1616,CA,555 Portola Drive,555 Portola Dr.,San Francisco,94131-1616,CA,(415) 695-5700,No Data,(415) 695-5326,No Data,09/01/1992,No Data,N,No Data,No Data,54.0,Unified School District,63,Alternative Schools of Choice,ALTSOC,Alternative School of Choice,HS,High School,9-12,9-12,N,N,N,No Data,37.745874,-122.44998,Stella,Kim,09/17/2024,Y,Asawa (Ruth) SOTA HS,815.0,Asawa (Ruth) SOTA HS
7,38684783830288.0,0634410,05587,Active,San Francisco,San Francisco Unified,Balboa High,1000 Cayuga Avenue,1000 Cayuga Ave.,San Francisco,94112-3236,CA,1000 Cayuga Avenue,1000 Cayuga Ave.,San Francisco,94112-3236,CA,(415) 469-4090,No Data,(415) 469-0859,No Data,07/01/1980,No Data,N,No Data,No Data,54.0,Unified School District,66,High Schools (Public),TRAD,Traditional,HS,High School,9-12,9-12,N,N,N,No Data,37.722073,-122.43985,Catherine,Arenson,10/19/2021,Y,Balboa HS,439.0,Balboa HS
8,38684780132241.0,0634410,02774,Active,San Francisco,San Francisco Unified,Brown Jr. (Willie L) Middle,2055 Silver Avenue,2055 Silver Ave.,San Francisco,94122-2032,CA,2055 Silver Avenue,2055 Silver Ave.,San Francisco,94122-2032,CA,(415) 642-8901,No Data,(415) 641-1120,No Data,08/17/2015,No Data,N,No Data,No Data,54.0,Unified School District,62,Intermediate/Middle Schools (Public),TRAD,Traditional,INTMIDJR,Intermediate/Middle/Junior High,6-8,6-8,N,N,N,No Data,37.735911,-122.39969,Malea,Mouton-Fuentes,12/02/2021,Y,Brown Jr. (Willie) MS,858.0,Brown Jr. (Willie) MS
9,38684786040778.0,0634410,05592,Active,San Francisco,San Francisco Unified,Bryant Elementary,2641 25th Street,2641 25th St.,San Francisco,94110-3514,CA,2641 25th Street,2641 25th St.,San Francisco,94110-3514,CA,(415) 695-5780,No Data,(415) 206-0538,No Data,07/01/1980,No Data,N,No Data,No Data,54.0,Unified School District,60,Elementary Schools (Public),TRAD,Traditional,ELEM,Elementary,K-5,K-5,N,N,N,No Data,37.751628,-122.40490,Dana,DeFranco,07/24/2025,Y,Bryant ES,456.0,Bryant ES
10,38684786062046.0,0634410,05626,Active,San Francisco,San Francisco Unified,Buena Vista/ Horace Mann K-8,3351 23rd Street,3351 23rd St.,San Francisco,94110-3031,CA,3351 23rd Street,3351 23rd St.,San Francisco,94110-3031,CA,(415) 695-5881,No Data,(415) 282-7869,No Data,07/01/1980,No Data,N,No Data,No Data,54.0,Unified School District,60,Elementary Schools (Public),TRAD,Traditional,ELEM,Elementary,K-8,K-8,N,N,N,No Data,37.753715,-122.41974,Claudia,Delarios-Moran,02/13/2019,Y,Buena Vista Horace Mann K-8,618.0,Buena Vista Horace Mann K-8
11,38684783830254.0,0634410,08189,Active,San Francisco,San Francisco Unified,Burton (Phillip and Sala) Academic High,400 Mansell Street,400 Mansell St.,San Francisco,94134-1829,CA,400 Mansell Street,400 Mansell St.,San Francisco,94134-1829,CA,(415) 469-4550,No Data,(415) 239-6806,No Data,07/01/1980,No Data,N,No Data,No Data,54.0,Unified School District,66,High Schools (Public),TRAD,Traditional,HS,High School,9-12,9-12,N,N,N,No Data,37.720698,-122.40507,Suniqua,Thomas,12/02/2021,Y,Burton (Phillip and Sala) HS,764.0,Burton (Phillip and Sala) HS
12,38684786040752.0,0634410,05590,Active,San Francisco,San Francisco Unified,Carmichael (Bessie)/FEC,375 Seventh Street,375 Seventh St.,San Francisco,94103-4020,CA,375 Seventh Street,375 Seventh St.,San Francisco,94103-4020,CA,(415) 355-6916,No Data,(415) 355-7683,No Data,07/01/1980,No Data,N,No Data,No Data,54.0,Unified School District,60,Elementary Schools (Public),TRAD,Traditional,ELEM,Elementary,K-8,K-8,N,N,N,No Data,37.775856,-122.40674,Anna,Wayne,08/19/2025,Y,Carmichael (Bessie) K-8,449.0,Carmichael (Bessie) K-8
13,38684786093496.0,0634410,05616,Active,San Francisco,San Francisco Unified,Carver (George Washington) Elementary,1360 Oakdale Avenue,1360 Oakdale Ave.,San Francisco,94124-2724,CA,1360 Oakdale Avenue,1360 Oakdale Ave.,San Francisco,94124-2724,CA,(415) 330-1540,No Data,(415) 467-7217,No Data,07/01/1980,No Data,N,No Data,No Data,54.0,Unified School District,60,Elementary Schools (Public),TRAD,Traditional,ELEM,Elementary,K-5,K-5,N,N,N,No Data,37.732403,-122.38638,Makaela,Manning,02/09/2023,N,Carver (Dr George W) ES,625.0,Carver (Dr George W) ES
14,38684786041149.0,0634410,05623,Active,San Francisco,San Francisco Unified,Chavez (Cesar) Elementary,825 Shotwell Street,825 Shotwell St.,San Francisco,94110-3212,CA,825 Shotwell Street,825 Shotwell St.,San Francisco,94110-3212,CA,(415) 695-5765,No Data,(415) 695-5843,No Data,07/01/1980,No Data,N,No Data,No Data,54.0,Unified School District,60,Elementary Schools (Public),TRAD,Traditional,ELEM,Elementary,K-5,K-5,N,N,N,No Data,37.754880,-122.41541,Lindsay,Dowdle,12/02/2021,Y,Chavez (Cesar) ES,603.0,Chavez (Cesar) ES
15,38684786113252.0,0634410,05369,Active,San Francisco,San Francisco Unified,Chin (John Yehall) Elementary,350 Broadway Street,350 Broadway St.,San Francisco,94133-4503,CA,350 Broadway Street,350 Broadway St.,San Francisco,94133-4503,CA,(415) 291-7946,No Data,(415) 291-7943,No Data,09/05/1995,No Data,N,No Data,No Data,54.0,Unified School District,60,Elementary Schools (Public),TRAD,Traditional,ELEM,Elementary,K-5,K-5,N,N,N,No Data,37.798310,-122.40317,Allen,Lee,02/13/2019,Y,Chin (John Yehall) ES,872.0,Chin (John Yehall) ES
16,38684780120386.0,0634410,12487,Active,San Francisco,San Francisco Unified,Chinese Immersion School at DeAvila,1250 Waller Street,1250 Waller St.,San Francisco,94117-2919,CA,1250 Waller Street,1250 Waller St.,San Francisco,94117-2919,CA,(415) 241-6325,No Data,(415) 241-6540,www.sfusd.edu,08/24/2009,No Data,N,No Data,No Data,54.0,Unified School District,60,Elementary Schools (Public),TRAD,Traditional,ELEM,Elementary,K-5,K-5,N,N,N,No Data,37.769464,-122.44429,Mia,Yee,11/16/2023,Y,Chinese Immersion School at DeAvila ES,509.0,Chinese Immersion School at DeAvila ES
17,38684786040828.0,0634410,05666,Active,San Francisco,San Francisco Unified,Clarendon Alternative Elementary,500 Clarendon Avenue,500 Clarendon Ave.,San Francisco,94131-1113,CA,500 Clarendon Avenue,500 Clarendon Ave.,San Francisco,94131-1113,CA,(415) 759-2796,No Data,(415) 759-2799,No Data,07/01/1980,No Data,N,No Data,No Data,54.0,Unified School District,60,Elementary Schools (Public),TRAD,Traditional,ELEM,Elementary,K-5,K-5,N,N,N,No Data,37.752989,-122.45611,Carrie,Maloney,05/23/2025,Y,Clarendon ES,478.0,Clarendon ES
18,38684786040836.0,0634410,05597,Active,San Francisco,San Francisco Unified,Cleveland Elementary,455 Athens Street,455 Athens St.,San Francisco,94112-2801,CA,455 Athens Street,455 Athens St.,San Francisco,94112-2801,CA,(415) 469-4709,No Data,(415) 469-4051,No Data,07/01/1980,No Data,N,No Data,No Data,54.0,Unified School District,60,Elementary Schools (Public),TRAD,Traditional,ELEM,Elementary,K-5,K-5,N,N,N,No Data,37.720733,-122.42904,Lenar,Ruiz,07/24/2025,Y,Cleveland ES,481.0,Cleveland ES
19,38684786040968.0,0634410,05681,Active,San Francisco,San Francisco Unified,Cobb (William L.) Elementary,2725 California Street,2725 California St.,San Francisco,94115-2513,CA,2725 California Street,2725 California St.,San Francisco,94115-2513,CA,(415) 749-3505,No Data,(415) 749-3436,No Data,07/01/1980,No Data,N,No Data,No Data,54.0,Unified School District,60,Elementary Schools (Public),TRAD,Traditional,ELEM,Elementary,K-5,K-5,N,N,N,No Data,37.788174,-122.43918,Henry,Wong,07/24/2025,N,Cobb (Dr William L) ES,525.0,Cobb (Dr William L) ES
20,38684786059869.0,0634410,05628,Active,San Francisco,San Francisco Unified,Denman (James) Middle,241 Oneida Avenue,241 Oneida Ave.,San Francisco,94112-3228,CA,241 Oneida Avenue,241 Oneida Ave.,San Francisco,94112-3228,CA,(415) 469-4535,No Data,(415) 585-8402,No Data,07/01/1980,No Data,N,No Data,No Data,54.0,Unified School District,62,Intermediate/Middle Schools (Public),TRAD,Traditional,INTMIDJR,Intermediate/Middle/Junior High,6-8,6-8,N,N,N,No Data,37.721993,-122.44331,Jenny,Ujiie,09/17/2024,Y,Denman (James) MS,632.0,Denman (James) MS
21,38684783830064.0,0634410,05602,Active,San Francisco,San Francisco Unified,Downtown High,693 Vermont Street,693 Vermont St.,San Francisco,94107-2635,CA,693 Vermont Street,693 Vermont St.,San Francisco,94107-2635,CA,(415) 695-5860,No Data,(415) 695-5863,No Data,07/01/1980,No Data,N,No Data,No Data,54.0,Unified School District,68,Continuation High Schools,CON,Continuation School,HS,High School,9-12,9-12,N,N,N,No Data,37.760939,-122.40407,Todd,Williams,02/09/2023,N,Downtown HS,,
22,38684786104673.0,0634410,08191,Active,San Francisco,San Francisco Unified,Drew (Charles) College Preparatory Academy,50 Pomona Avenue,50 Pomona Ave.,San Francisco,94124-2344,CA,50 Pomona Avenue,50 Pomona Ave.,San Francisco,94124-2344,CA,(415) 330-1526,No Data,(415) 822-9210,No Data,07/01/1980,No Data,N,No Data,No Data,54.0,Unified School District,60,Elementary Schools (Public),TRAD,Traditional,ELEM,Elementary,K-5,K-5,N,N,N,No Data,37.731779,-122.39355,Vidrale,Franklin,02/09/2023,N,Drew (Dr Charles) College Preparatory Academy ES,507.0,Drew (Dr Charles) College Preparatory Academy ES
23,38684786040950.0,0634410,05605,Active,San Francisco,San Francisco Unified,El Dorado Elementary,70 Delta Street,70 Delta St.,San Francisco,94134-2145,CA,70 Delta Street,70 Delta St.,San Francisco,94134-2145,CA,(415) 330-1537,No Data,(415) 467-2435,No Data,07/01/1980,No Data,N,No Data,No Data,54.0,Unified School District,60,Elementary Schools (Public),TRAD,Traditional,ELEM,Elementary,P-5,K-5,N,N,N,No Data,37.719265,-122.40673,Danielle,Cordova-Camou,09/17/2024,N,El Dorado ES,521.0,El Dorado ES
24,38684786062038.0,0634410,07842,Active,San Francisco,San Francisco Unified,Everett Middle,450 Church Street,450 Church St.,San Francisco,94114-1721,CA,450 Church Street,450 Church St.,San Francisco,94114-1721,CA,(415) 241-6344,No Data,(415) 241-6361,No Data,07/01/1980,No Data,N,No Data,No Data,54.0,Unified School District,62,Intermediate/Middle Schools (Public),TRAD,Traditional,INTMIDJR,Intermediate/Middle/Junior High,6-8,6-8,N,N,N,No Data,37.763667,-122.42858,Crisoforo,Garza,07/24/2025,Y,Everett MS,529.0,Everett MS
25,38684780111427.0,0634410,11772,Active,San Francisco,San Francisco Unified,Feinstein (Dianne) Elementary,2550 25th Avenue,2550 25th Ave.,San Francisco,94116-2901,CA,2550 25th Avenue,2550 25th Ave.,San Francisco,94116-2901,CA,(415) 615-8460,No Data,(415) 242-2532,No Data,08/28/2006,No Data,N,No Data,No Data,54.0,Unified School District,60,Elementary Schools (Public),TRAD,Traditional,ELEM,Elementary,K-5,K-5,N,N,N,No Data,37.739964,-122.48185,Christina,Jung,09/17/2024,N,Feinstein (Dianne) ES,539.0,Feinstein (Dianne) ES
26,38684786041347.0,0634410,05640,Active,San Francisco,San Francisco Unified,Flynn (Leonard R.) Elementary,3125 Cesar Chavez Street,3125 Cesar Chavez St.,San Francisco,94110-4722,CA,3125 Cesar Chavez Street,3125 Cesar Chavez St.,San Francisco,94110-4722,CA,(415) 695-5770,No Data,(415) 695-5837,No Data,07/01/1980,No Data,N,No Data,No Data,54.0,Unified School District,60,Elementary Schools (Public),TRAD,Traditional,ELEM,Elementary,K-5,K-5,N,N,N,No Data,37.748190,-122.41203,Tyler,Woods,02/13/2019,Y,Flynn (Leonard R) ES,680.0,Flynn (Leonard R) ES
27,38684786059844.0,0634410,05610,Active,San Francisco,San Francisco Unified,Francisco Middle,2190 Powell Street,2190 Powell St.,San Francisco,94133-1949,CA,2190 Powell Street,2190 Powell St.,San Francisco,94133-1949,CA,(415) 291-7900,No Data,(415) 291-7910,No Data,07/01/1980,No Data,N,No Data,No Data,54.0,Unified School District,62,Intermediate/Middle Schools (Public),TRAD,Traditional,INTMIDJR,Intermediate/Middle/Junior High,6-8,6-8,N,N,N,No Data,37.804816,-122.41168,Hossein,Koch,07/24/2025,Y,Francisco MS,546.0,Francisco MS
28,38684783831765.0,0634410,05612,Active,San Francisco,San Francisco Unified,Galileo High,1150 Francisco Street,1150 Francisco St.,San Francisco,94109-1004,CA,1150 Francisco Street,1150 Francisco St.,San Francisco,94109-1004,CA,(415) 749-3430,No Data,(415) 771-2322,No Data,07/01/1980,No Data,N,No Data,No Data,54.0,Unified School District,66,High Schools (Public),TRAD,Traditional,HS,High School,9-12,9-12,N,N,N,No Data,37.803401,-122.42408,DeTrice,Rodgers,09/17/2024,Y,Galileo HS,559.0,Galileo HS
29,38684786041040.0,0634410,05613,Active,San Francisco,San Francisco Unified,Garfield Elementary,420 Filbert Street,420 Filbert St.,San Francisco,94133-3002,CA,420 Filbert Street,420 Filbert St.,San Francisco,94133-3002,CA,(415) 291-7924,No Data,(415) 291-7916,No Data,07/01/1980,No Data,N,No Data,No Data,54.0,Unified School District,60,Elementary Schools (Public),TRAD,Traditional,ELEM,Elementary,K-5,K-5,N,N,N,No Data,37.801800,-122.40673,Karen,Maruoka,08/24/2022,Y,Garfield ES,562.0,Garfield ES
30,38684780128876.0,0634410,13687,Closed,San Francisco,San Francisco Unified,Gateway to College,"50 Phelan Avenue Science Hall, Room 127","50 Phelan Ave. Science Hall, Rm. 127",San Francisco,94112-1821,CA,"50 Phelan Avenue Science Hall, Room 127","50 Phelan Ave. Science Hall, Rm. 127",San Francisco,94112-1821,CA,No Data,No Data,No Data,Information Not Available,08/14/2013,06/30/2016,N,No Data,No Data,54.0,Unified School District,63,Alternative Schools of Choice,ALTSOC,Alternative School of Choice,HS,High School,9-12,12,N,N,N,No Data,No Data,No Data,No Data,No Data,06/16/2017,No Data,Gateway to College,,
31,38684786059828.0,0634410,05580,Active,San Francisco,San Francisco Unified,Giannini (A.P.) Middle,3151 Ortega Street,3151 Ortega St.,San Francisco,94122-4051,CA,3151 Ortega Street,3151 Ortega St.,San Francisco,94122-4051,CA,(415) 759-2770,No Data,(415) 664-8541,No Data,07/01/1980,No Data,N,No Data,No Data,54.0,Unified School District,62,Intermediate/Middle Schools (Public),TRAD,Traditional,INTMIDJR,Intermediate/Middle/Junior High,6-8,6-8,N,N,N,No Data,37.751425,-122.49702,Tai-Sun,Schoeman,08/08/2024,Y,Giannini (A.P.) MS,404.0,Giannini (A.P.) MS
32,38684786041073.0,0634410,05618,Active,San Francisco,San Francisco Unified,Glen Park Elementary,151 Lippard Avenue,151 Lippard Ave.,San Francisco,94131-3249,CA,151 Lippard Avenue,151 Lippard Ave.,San Francisco,94131-3249,CA,(415) 469-4713,No Data,(415) 337-6942,No Data,07/01/1980,No Data,N,No Data,No Data,54.0,Unified School District,60,Elementary Schools (Public),TRAD,Traditional,ELEM,Elementary,K-5,K-5,N,N,N,No Data,37.733107,-122.43608,John,D'Antonio,07/24/2025,Y,Glen Park ES,575.0,Glen Park ES
33,38684786041115.0,0634410,05620,Active,San Francisco,San Francisco Unified,Grattan Elementary,165 Grattan Street,165 Grattan St.,San Francisco,94117-4208,CA,165 Grattan Street,165 Grattan St.,San Francisco,94117-4208,CA,(415) 759-2815,No Data,(415) 759-2803,No Data,07/01/1980,No Data,N,No Data,No Data,54.0,Unified School District,60,Elementary Schools (Public),TRAD,Traditional,ELEM,Elementary,K-5,K-5,N,N,N,No Data,37.763858,-122.45052,Catherine,Walter,02/09/2023,N,Grattan ES,589.0,Grattan ES
34,38684786041123.0,0634410,05621,Active,San Francisco,San Francisco Unified,Guadalupe Elementary,859 Prague Street,859 Prague St.,San Francisco,94112-4516,CA,859 Prague Street,859 Prague St.,San Francisco,94112-4516,CA,(415) 469-4718,No Data,(415) 469-4066,No Data,07/01/1980,No Data,N,No Data,No Data,54.0,Unified School District,60,Elementary Schools (Public),TRAD,Traditional,ELEM,Elementary,K-5,K-5,N,N,N,No Data,37.710438,-122.43441,Raj,Narayan Sharma,09/17/2024,Y,Guadalupe ES,593.0,Guadalupe ES
35,38684786040760.0,0634410,05591,Active,San Francisco,San Francisco Unified,Harte (Bret) Elementary,1035 Gilman Avenue,1035 Gilman Ave.,San Francisco,94124-3710,CA,1035 Gilman Avenue,1035 Gilman Ave.,San Francisco,94124-3710,CA,(415) 330-1520,No Data,(415) 330-1555,No Data,07/01/1980,No Data,N,No Data,No Data,54.0,Unified School District,60,Elementary Schools (Public),TRAD,Traditional,ELEM,Elementary,K-5,K-5,N,N,N,No Data,37.718610,-122.38889,Jeremy,Hilinski,02/13/2019,Y,Harte (Bret) ES,453.0,Harte (Bret) ES
36,38684786041156.0,0634410,05625,Active,San Francisco,San Francisco Unified,Hillcrest Elementary,810 Silver Avenue,810 Silver Ave.,San Francisco,94134-1012,CA,810 Silver Avenue,810 Silver Ave.,San Francisco,94134-1012,CA,(415) 469-4722,No Data,(415) 469-4067,No Data,07/01/1980,No Data,N,No Data,No Data,54.0,Unified School District,60,Elementary Schools (Public),TRAD,Traditional,ELEM,Elementary,K-5,K-5,N,N,N,No Data,37.729026,-122.41924,Patricia,Theel,09/17/2024,Y,Hillcrest ES,614.0,Hillcrest ES
37,38684786059851.0,0634410,05624,Active,San Francisco,San Francisco Unified,Hoover (Herbert) Middle,2290 14th Avenue,2290 14th Ave.,San Francisco,94116-1841,CA,2290 14th Avenue,2290 14th Ave.,San Francisco,94116-1841,CA,(415) 759-2783,No Data,(415) 759-2881,No Data,07/01/1980,No Data,N,No Data,No Data,54.0,Unified School District,62,Intermediate/Middle Schools (Public),TRAD,Traditional,INTMIDJR,Intermediate/Middle/Junior High,6-8,6-8,N,N,N,No Data,37.745350,-122.47031,Adrienne,Smith,09/17/2024,Y,Hoover (Herbert) MS,607.0,Hoover (Herbert) MS
38,38684786040984.0,0634410,05607,Active,San Francisco,San Francisco Unified,Huerta (Dolores) Elementary,65 Chenery Street,65 Chenery St.,San Francisco,94131-2706,CA,65 Chenery Street,65 Chenery St.,San Francisco,94131-2706,CA,(415) 695-5669,No Data,(415) 695-5343,No Data,07/01/1980,No Data,N,No Data,No Data,54.0,Unified School District,60,Elementary Schools (Public),TRAD,Traditional,ELEM,Elementary,K-5,K-5,N,N,N,No Data,37.740659,-122.42559,Edward,Garnica,09/17/2024,Y,Huerta (Dolores) ES,537.0,Huerta (Dolores) ES
39,38684783830197.0,0634410,07840,Active,San Francisco,San Francisco Unified,Independence High,1350 7th Avenue,1350 7th Ave.,San Francisco,94122-2508,CA,1350 7th Avenue,1350 7th Ave.,San Francisco,94122-2508,CA,(415) 242-2528,No Data,(415) 242-2533,No Data,07/01/1980,No Data,N,No Data,No Data,54.0,Unified School District,63,Alternative Schools of Choice,ALTSOC,Alternative School of Choice,HS,High School,9-12,9-12,N,N,N,No Data,37.763243,-122.46382,Anastasia,Klafter,02/09/2023,N,Independence HS,466.0,Independence HS
40,38684783830353.0,0634410,09625,Closed,San Francisco,San Francisco Unified,International Studies Academy,655 De Haro Street,655 De Haro St.,San Francisco,94107-2635,CA,655 De Haro Street,655 De Haro St.,San Francisco,94107-2635,CA,No Data,No Data,No Data,No Data,07/01/1980,06/30/2016,N,No Data,No Data,54.0,Unified School District,63,Alternative Schools of Choice,ALTSOC,Alternative School of Choice,HS,High School,9-12,9-12,N,N,N,No Data,37.761597,-122.40120,No Data,No Data,08/05/2016,No Data,Int'L Studies Acad,624.0,Int'L Studies Acad
41,38684786041230.0,0634410,05631,Active,San Francisco,San Francisco Unified,Jefferson Elementary,1725 Irving Street,1725 Irving St.,San Francisco,94122-1893,CA,1725 Irving Street,1725 Irving St.,San Francisco,94122-1893,CA,(415) 759-2821,No Data,(415) 759-2806,No Data,07/01/1980,No Data,N,No Data,No Data,54.0,Unified School District,60,Elementary Schools (Public),TRAD,Traditional,ELEM,Elementary,K-5,K-5,N,N,N,No Data,37.763555,-122.47635,Craig,Berger,02/09/2023,N,Jefferson ES,644.0,Jefferson ES
42,38684780102103.0,0634410,11252,Active,San Francisco,San Francisco Unified,Jordan (June) School for Equity,325 La Grande Avenue,325 La Grande Ave.,San Francisco,94112-2866,CA,325 La Grande Avenue,325 La Grande Ave.,San Francisco,94112-2866,CA,(415) 452-4922,No Data,(415) 452-4927,www.sfusd.edu,08/25/2003,No Data,N,No Data,No Data,54.0,Unified School District,63,Alternative Schools of Choice,ALTSOC,Alternative School of Choice,HS,High School,9-12,9-12,N,N,N,No Data,37.719997,-122.42550,Amanda,Chui,05/23/2025,N,Jordan (June) HS,757.0,Jordan (June) HS
43,38684786041008.0,0634410,05609,Active,San Francisco,San Francisco Unified,Key (Francis Scott) Elementary,1530 43rd Avenue,1530 43rd Ave.,San Francisco,94122-2925,CA,1530 43rd Avenue,1530 43rd Ave.,San Francisco,94122-2925,CA,(415) 759-2811,No Data,(415) 759-2810,No Data,07/01/1980,No Data,N,No Data,No Data,54.0,Unified School District,60,Elementary Schools (Public),TRAD,Traditional,ELEM,Elementary,K-5,K-5,N,N,N,No Data,37.758154,-122.50249,Cynthia,Lam,09/17/2024,N,Key (Francis Scott) ES,544.0,Key (Francis Scott) ES
44,38684786041602.0,0634410,05671,Active,San Francisco,San Francisco Unified,King (Thomas Starr) Elementary,1215 Carolina Street,1215 Carolina St.,San Francisco,94107-3322,CA,1215 Carolina Street,1215 Carolina St.,San Francisco,94107-3322,CA,(415) 695-5797,No Data,(415) 695-5338,No Data,07/01/1980,No Data,N,No Data,No Data,54.0,Unified School District,60,Elementary Schools (Public),TRAD,Traditional,ELEM,Elementary,K-5,K-5,N,N,N,No Data,37.752765,-122.39935,Samatra,Downing,08/01/2025,Y,King (Thomas Starr) ES,838.0,King (Thomas Starr) ES
45,38684786059885.0,0634410,05655,Active,San Francisco,San Francisco Unified,King Jr. (Martin Luther) Academic Middle,350 Girard Street,350 Girard St.,San Francisco,94134-1469,CA,350 Girard Street,350 Girard St.,San Francisco,94134-1469,CA,(415) 330-1500,No Data,(415) 468-7295,No Data,07/01/1980,No Data,N,No Data,No Data,54.0,Unified School District,62,Intermediate/Middle Schools (Public),TRAD,Traditional,INTMIDJR,Intermediate/Middle/Junior High,6-8,6-8,N,N,N,No Data,37.727948,-122.40491,Bryon,Gougoumis,07/24/2025,Y,King Jr (Dr Martin L) MS,710.0,King Jr (Dr Martin L) MS
46,38684786041305.0,0634410,05637,Active,San Francisco,San Francisco Unified,Lafayette Elementary,4545 Anza Street,4545 Anza St.,San Francisco,94121-2621,CA,4545 Anza Street,4545 Anza St.,San Francisco,94121-2621,CA,(415) 750-8483,No Data,(415) 750-8472,No Data,07/01/1980,No Data,N,No Data,No Data,54.0,Unified School District,60,Elementary Schools (Public),TRAD,Traditional,ELEM,Elementary,K-5,K-5,N,N,N,No Data,37.777608,-122.49688,Krishna,Kassebaum,09/17/2024,N,Lafayette ES,664.0,Lafayette ES
47,38684786041321.0,0634410,05638,Active,San Francisco,San Francisco Unified,Lakeshore Alternative Elementary,220 Middlefield Drive,220 Middlefield Dr.,San Francisco,94132-1418,CA,220 Middlefield Drive,220 Middlefield Dr.,San Francisco,94132-1418,CA,(415) 759-2825,No Data,(415) 753-8312,No Data,07/01/1980,No Data,N,No Data,No Data,54.0,Unified School District,60,Elementary Schools (Public),TRAD,Traditional,ELEM,Elementary,K-5,K-5,N,N,N,No Data,37.730603,-122.48615,Matthew,Hartford,09/17/2024,N,Lakeshore ES,670.0,Lakeshore ES
48,38684786040877.0,0634410,05599,Active,San Francisco,San Francisco Unified,Lau (Gordon J.) Elementary,950 Clay Street,950 Clay St.,San Francisco,94108-1521,CA,950 Clay Street,950 Clay St.,San Francisco,94108-1521,CA,(415) 291-7921,No Data,(415) 291-7952,No Data,07/01/1980,No Data,N,No Data,No Data,54.0,Unified School District,60,Elementary Schools (Public),TRAD,Traditional,ELEM,Elementary,K-5,K-5,N,N,N,No Data,37.793981,-122.40868,Gloria,Choy,02/13/2019,Y,Lau (Gordon J) ES,490.0,Lau (Gordon J) ES
49,38684786041339.0,0634410,05639,Active,San Francisco,San Francisco Unified,Lawton Alternative,1570 31st Avenue,1570 31st Ave.,San Francisco,94122-3104,CA,1570 31st Avenue,1570 31st Ave.,San Francisco,94122-3104,CA,(415) 759-2832,No Data,(415) 759-2842,No Data,07/01/1980,No Data,N,No Data,No Data,54.0,Unified School District,60,Elementary Schools (Public),TRAD,Traditional,ELEM,Elementary,K-8,K-8,N,N,N,No Data,37.757952,-122.48958,Armen,Sedrakian,02/09/2023,N,Lawton K-8,676.0,Lawton K-8
50,38684786089569.0,0634410,05596,Active,San Francisco,San Francisco Unified,Lee (Edwin and Anita) Newcomer,657 Merchant Street,657 Merchant St.,San Francisco,94111-2505,CA,657 Merchant Street,657 Merchant St.,San Francisco,94111-2505,CA,(415) 291-7918,No Data,(415) 291-7965,No Data,07/01/1980,No Data,N,No Data,No Data,54.0,Unified School District,60,Elementary Schools (Public),TRAD,Traditional,ELEM,Elementary,K-5,2-5,N,N,N,No Data,37.794905,-122.40414,Lisa,Kwong,09/17/2024,N,Lee (Edwin and Anita) Newcomer ES,476.0,Lee (Edwin and Anita) Newcomer ES
51,38684786062053.0,0634410,05629,Active,San Francisco,San Francisco Unified,Lick (James) Middle,1220 Noe Street,1220 Noe St.,San Francisco,94114-3714,CA,1220 Noe Street,1220 Noe St.,San Francisco,94114-3714,CA,(415) 695-5675,No Data,(415) 695-5360,No Data,07/01/1980,No Data,N,No Data,No Data,54.0,Unified School District,62,Intermediate/Middle Schools (Public),TRAD,Traditional,INTMIDJR,Intermediate/Middle/Junior High,6-8,6-8,N,N,N,No Data,37.749543,-122.43175,Norma,Hernandez,07/24/2025,Y,Lick (James) MS,634.0,Lick (James) MS
52,38684786102479.0,0634410,07841,Active,San Francisco,San Francisco Unified,Lilienthal (Claire) Elementary,3630 Divisadero Street,3630 Divisadero St.,San Francisco,94123-1411,CA,3630 Divisadero Street,3630 Divisadero St.,San Francisco,94123-1411,CA,(415) 749-3516,No Data,(415) 749-3431,No Data,07/01/1980,No Data,N,No Data,No Data,54.0,Unified School District,60,Elementary Schools (Public),TRAD,Traditional,ELEM,Elementary,K-8,K-8,N,N,N,No Data,37.803192,-122.44350,Molly,Pope,09/17/2024,Y,Lilienthal (Claire) K-8,479.0,Lilienthal (Claire) K-8
53,38684783833241.0,0634410,05581,Active,San Francisco,San Francisco Unified,Lincoln (Abraham) High,2162 24th Avenue,2162 24th Ave.,San Francisco,94116-1723,CA,2162 24th Avenue,2162 24th Ave.,San Francisco,94116-1723,CA,(415) 759-2700,No Data,(415) 566-2224,No Data,07/01/1980,No Data,N,No Data,No Data,54.0,Unified School District,66,High Schools (Public),TRAD,Traditional,HS,High School,9-12,9-12,N,N,N,No Data,37.747259,-122.48132,Marisol,Arkin,06/27/2025,Y,Lincoln (Abraham) HS,405.0,Lincoln (Abraham) HS
54,38684786041362.0,0634410,05641,Active,San Francisco,San Francisco Unified,Longfellow Elementary,755 Morse Street,755 Morse St.,San Francisco,94112-4223,CA,755 Morse Street,755 Morse St.,San Francisco,94112-4223,CA,(415) 469-4730,No Data,(415) 469-4068,No Data,07/01/1980,No Data,N,No Data,No Data,54.0,Unified School District,60,Elementary Schools (Public),TRAD,Traditional,ELEM,Elementary,K-5,K-5,N,N,N,No Data,37.710460,-122.44769,Heidi,Dobrott,07/24/2025,Y,Longfellow ES,691.0,Longfellow ES
55,38684783833407.0,0634410,05643,Active,San Francisco,San Francisco Unified,Lowell High,1101 Eucalyptus Drive,1101 Eucalyptus Dr.,San Francisco,94132-1401,CA,1101 Eucalyptus Drive,1101 Eucalyptus Dr.,San Francisco,94132-1401,CA,(415) 759-2730,No Data,(415) 759-2742,No Data,07/01/1980,No Data,N,No Data,No Data,54.0,Unified School District,66,High Schools (Public),TRAD,Traditional,HS,High School,9-12,9-12,N,N,N,No Data,37.731044,-122.48355,Jan,Bautista,09/17/2024,Y,Lowell HS,697.0,Lowell HS
56,38684786041586.0,0634410,05669,Active,San Francisco,San Francisco Unified,Malcolm X Academy,350 Harbor Road,350 Harbor Rd.,San Francisco,94124-2474,CA,350 Harbor Road,350 Harbor Rd.,San Francisco,94124-2474,CA,(415) 695-5950,No Data,(415) 647-1647,No Data,07/01/1980,No Data,N,No Data,No Data,54.0,Unified School District,60,Elementary Schools (Public),TRAD,Traditional,ELEM,Elementary,K-5,K-5,N,N,N,No Data,37.733734,-122.38061,Matthew,Fitzsimmons,02/09/2023,N,Malcolm X Academy ES,830.0,Malcolm X Academy ES
57,38684786062061.0,0634410,05645,Active,San Francisco,San Francisco Unified,Marina Middle,3500 Fillmore Street,3500 Fillmore St.,San Francisco,94123-2103,CA,3500 Fillmore Street,3500 Fillmore St.,San Francisco,94123-2103,CA,(415) 749-3495,No Data,(415) 921-7539,No Data,07/01/1980,No Data,N,No Data,No Data,54.0,Unified School District,62,Intermediate/Middle Schools (Public),TRAD,Traditional,INTMIDJR,Intermediate/Middle/Junior High,6-8,6-8,N,N,N,No Data,37.801671,-122.43636,Michael,Harris,09/17/2024,Y,Marina MS,708.0,Marina MS
58,38684783830403.0,0634410,03976,Active,San Francisco,San Francisco Unified,Marshall (Thurgood) High,45 Conkling Street,45 Conkling St.,San Francisco,94124-1931,CA,45 Conkling Street,45 Conkling St.,San Francisco,94124-1931,CA,(415) 695-5612,No Data,(415) 285-5438,No Data,09/07/1994,No Data,N,No Data,No Data,54.0,Unified School District,66,High Schools (Public),TRAD,Traditional,HS,High School,8-12,9-12,N,N,N,No Data,37.735717,-122.40188,Sarah,Ballard-Hanson,05/23/2025,Y,Marshall (Thurgood) HS,853.0,Marshall (Thurgood) HS
59,38684786041412.0,0634410,05646,Active,San Francisco,San Francisco Unified,Marshall Elementary,1575 15th Street,1575 15th St.,San Francisco,94103-3639,CA,1575 15th Street,1575 15th St.,San Francisco,94103-3639,CA,(415) 241-6280,No Data,(415) 241-6547,No Data,07/01/1980,No Data,N,No Data,No Data,54.0,Unified School District,60,Elementary Schools (Public),TRAD,Traditional,ELEM,Elementary,K-5,K-5,N,N,N,No Data,37.766679,-122.41909,Noah,Ingber,09/17/2024,Y,Marshall ES,714.0,Marshall ES
60,38684786041016.0,0634410,05611,Active,San Francisco,San Francisco Unified,McCoppin (Frank) Elementary,651 Sixth Avenue,651 Sixth Ave.,San Francisco,94118-3804,CA,651 Sixth Avenue,651 Sixth Ave.,San Francisco,94118-3804,CA,(415) 750-8475,No Data,(415) 750-8474,No Data,07/01/1980,No Data,N,No Data,No Data,54.0,Unified School District,60,Elementary Schools (Public),TRAD,Traditional,ELEM,Elementary,K-5,K-5,N,N,N,No Data,37.776283,-122.46401,Bennett,Lee,02/09/2023,N,McCoppin (Frank) ES,549.0,McCoppin (Frank) ES
61,38684786041420.0,0634410,05647,Active,San Francisco,San Francisco Unified,McKinley Elementary,1025 14th Street,1025 14th St.,San Francisco,94114-1221,CA,1025 14th Street,1025 14th St.,San Francisco,94114-1221,CA,(415) 241-6300,No Data,(415) 241-6548,No Data,07/01/1980,No Data,N,No Data,No Data,54.0,Unified School District,60,Elementary Schools (Public),TRAD,Traditional,ELEM,Elementary,K-5,K-5,N,N,N,No Data,37.767229,-122.43659,John,Collins,02/09/2023,N,McKinley ES,718.0,McKinley ES
62,38684786040919.0,0634410,05601,Active,San Francisco,San Francisco Unified,Milk (Harvey) Civil Rights Elementary,4235 19th Street,4235 19th St.,San Francisco,94114-2415,CA,4235 19th Street,4235 19th St.,San Francisco,94114-2415,CA,(415) 241-6276,No Data,(415) 241-6545,No Data,07/01/1980,No Data,N,No Data,No Data,54.0,Unified School District,60,Elementary Schools (Public),TRAD,Traditional,ELEM,Elementary,K-5,K-5,N,N,N,No Data,37.759148,-122.43634,Mark,Sanchez,07/24/2025,N,Milk (Harvey) Civil Right ES,505.0,Milk (Harvey) Civil Right ES
63,38684786041438.0,0634410,05648,Active,San Francisco,San Francisco Unified,Miraloma Elementary,175 Omar Way,175 Omar Way,San Francisco,94127-1701,CA,175 Omar Way,175 Omar Way,San Francisco,94127-1701,CA,(415) 469-4734,No Data,(415) 469-4069,No Data,07/01/1980,No Data,N,No Data,No Data,54.0,Unified School District,60,Elementary Schools (Public),TRAD,Traditional,ELEM,Elementary,K-5,K-5,N,N,N,No Data,37.739309,-122.45021,Rochelle,Gumpert,09/17/2024,N,Miraloma ES,722.0,Miraloma ES
64,38684786089585.0,0634410,05649,Active,San Francisco,San Francisco Unified,Mission Education Center,1670 Noe Street,1670 Noe St.,San Francisco,94131-2357,CA,1670 Noe Street,1670 Noe St.,San Francisco,94131-2357,CA,(415) 695-5313,No Data,(415) 695-5339,No Data,07/01/1980,No Data,N,No Data,No Data,54.0,Unified School District,60,Elementary Schools (Public),TRAD,Traditional,ELEM,Elementary,K-5,K-5,N,N,N,No Data,37.742282,-122.43106,Albert,Maldonado,09/17/2024,N,Mission Education Center ES,724.0,Mission Education Center ES
65,38684783834082.0,0634410,05650,Active,San Francisco,San Francisco Unified,Mission High,3750 18th Street,3750 18th St.,San Francisco,94114-2614,CA,3750 18th Street,3750 18th St.,San Francisco,94114-2614,CA,(415) 241-6240,No Data,(415) 626-1641,No Data,07/01/1980,No Data,N,No Data,No Data,54.0,Unified School District,66,High Schools (Public),TRAD,Traditional,HS,High School,9-12,9-12,N,N,N,No Data,37.761403,-122.42728,Valerie,Forero,09/17/2024,Y,Mission HS,725.0,Mission HS
66,38684786041446.0,0634410,05651,Active,San Francisco,San Francisco Unified,Monroe Elementary,260 Madrid Street,260 Madrid St.,San Francisco,94112-2055,CA,260 Madrid Street,260 Madrid St.,San Francisco,94112-2055,CA,(415) 469-4736,No Data,(415) 469-4070,No Data,07/01/1980,No Data,N,No Data,No Data,54.0,Unified School District,60,Elementary Schools (Public),TRAD,Traditional,ELEM,Elementary,K-5,K-5,N,N,N,No Data,37.725224,-122.43012,Telmo,Vasquez,09/17/2024,Y,Monroe ES,729.0,Monroe ES
67,38684786099154.0,0634410,05615,Active,San Francisco,San Francisco Unified,Moscone (George R.) Elementary,2576 Harrison Street,2576 Harrison St.,San Francisco,94110-2720,CA,2576 Harrison Street,2576 Harrison St.,San Francisco,94110-2720,CA,(415) 695-5736,No Data,(415) 695-5341,No Data,07/01/1980,No Data,N,No Data,No Data,54.0,Unified School District,60,Elementary Schools (Public),TRAD,Traditional,ELEM,Elementary,K-5,K-5,N,N,N,No Data,37.756242,-122.41230,Sarah,Twiest,09/17/2024,Y,Moscone (George R) ES,723.0,Moscone (George R) ES
68,38684786041255.0,0634410,05633,Active,San Francisco,San Francisco Unified,Muir (John) Elementary,380 Webster Street,380 Webster St.,San Francisco,94117-3512,CA,380 Webster Street,380 Webster St.,San Francisco,94117-3512,CA,(415) 241-6335,No Data,(415) 431-9938,No Data,07/01/1980,No Data,N,No Data,No Data,54.0,Unified School District,60,Elementary Schools (Public),TRAD,Traditional,ELEM,Elementary,K-5,K-5,N,N,N,No Data,37.773688,-122.42909,Donald,Frazier,09/17/2024,Y,Muir (John) ES,650.0,Muir (John) ES
69,38684786097919.0,0634410,05652,Active,San Francisco,San Francisco Unified,New Traditions Elementary,2049 Grove Street,2049 Grove St.,San Francisco,94117-1123,CA,2049 Grove Street,2049 Grove St.,San Francisco,94117-1123,CA,(415) 750-8490,No Data,(415) 750-8479,No Data,07/01/1980,No Data,N,No Data,No Data,54.0,Unified School District,60,Elementary Schools (Public),TRAD,Traditional,ELEM,Elementary,K-5,K-5,N,N,N,No Data,37.774310,-122.45032,Myra,Quadros,02/09/2023,N,New Traditions ES,735.0,New Traditions ES
70,38684783834769.0,0634410,07350,Active,San Francisco,San Francisco Unified,O'Connell (John) High,2355 Folsom Street,2355 Folsom St.,San Francisco,94110-2010,CA,2355 Folsom Street,2355 Folsom St.,San Francisco,94110-2010,CA,(415) 695-5370,No Data,(415) 695-5379,No Data,07/01/1980,No Data,N,No Data,No Data,54.0,Unified School District,66,High Schools (Public),TRAD,Traditional,HS,High School,9-12,9-12,N,N,N,No Data,37.759631,-122.41468,Amy,Abero,09/17/2024,Y,O'Connell (John) HS,651.0,O'Connell (John) HS
71,38684786041271.0,0634410,05635,Active,San Francisco,San Francisco Unified,Ortega (Jose) Elementary,400 Sargent Street,400 Sargent St.,San Francisco,94132-3152,CA,400 Sargent Street,400 Sargent St.,San Francisco,94132-3152,CA,(415) 469-4726,No Data,(415) 584-7972,No Data,07/01/1980,No Data,N,No Data,No Data,54.0,Unified School District,60,Elementary Schools (Public),TRAD,Traditional,ELEM,Elementary,K-5,K-5,N,N,N,No Data,37.716168,-122.46625,Paula,Antram,09/17/2024,Y,Ortega (Jose) ES,746.0,Ortega (Jose) ES
72,38684786041206.0,0634410,05630,Active,San Francisco,San Francisco Unified,Parker (Jean) Elementary,840 Broadway Street,840 Broadway St.,San Francisco,94133-4219,CA,840 Broadway Street,840 Broadway St.,San Francisco,94133-4219,CA,(415) 291-7990,No Data,(415) 291-7996,No Data,07/01/1980,No Data,N,No Data,No Data,54.0,Unified School District,60,Elementary Schools (Public),TRAD,Traditional,ELEM,Elementary,K-5,K-5,N,N,N,No Data,37.797323,-122.41110,Sara,Saldana,08/08/2024,N,Parker (Jean) ES,638.0,Parker (Jean) ES
73,38684786041503.0,0634410,05658,Active,San Francisco,San Francisco Unified,Parks (Rosa) Elementary,1501 O'Farrell Street,1501 O'Farrell St.,San Francisco,94115-3762,CA,1501 O'Farrell Street,1501 O'Farrell St.,San Francisco,94115-3762,CA,(415) 749-3519,No Data,(415) 749-3610,No Data,07/01/1980,No Data,N,No Data,No Data,54.0,Unified School District,60,Elementary Schools (Public),TRAD,Traditional,ELEM,Elementary,K-5,K-5,N,N,N,No Data,37.783681,-122.42945,Laura,Schmidt-Nojima,09/17/2024,N,Parks (Rosa) ES,786.0,Parks (Rosa) ES
74,38684786041065.0,0634410,05614,Active,San Francisco,San Francisco Unified,Peabody (George) Elementary,251 Sixth Avenue,251 Sixth Ave.,San Francisco,94118-2311,CA,251 Sixth Avenue,251 Sixth Ave.,San Francisco,94118-2311,CA,(415) 750-8480,No Data,(415) 750-8487,No Data,07/01/1980,No Data,N,No Data,No Data,54.0,Unified School District,60,Elementary Schools (Public),TRAD,Traditional,ELEM,Elementary,K-5,K-5,N,N,N,No Data,37.783947,-122.46456,Amy,Gottesfeld,07/24/2025,N,Peabody (George) ES,569.0,Peabody (George) ES
75,38684786062079.0,0634410,05657,Active,San Francisco,San Francisco Unified,Presidio Middle,450 30th Avenue,450 30th Ave.,San Francisco,94121-1766,CA,450 30th Avenue,450 30th Ave.,San Francisco,94121-1766,CA,(415) 750-8435,No Data,(415) 750-8445,No Data,07/01/1980,No Data,N,No Data,No Data,54.0,Unified School District,62,Intermediate/Middle Schools (Public),TRAD,Traditional,INTMIDJR,Intermediate/Middle/Junior High,6-8,6-8,N,N,N,No Data,37.780831,-122.49010,Kevin,Chui,09/17/2024,Y,Presidio MS,778.0,Presidio MS
76,38684786041511.0,0634410,05659,Active,San Francisco,San Francisco Unified,Redding Elementary,1421 Pine Street,1421 Pine St.,San Francisco,94109-4719,CA,1421 Pine Street,1421 Pine St.,San Francisco,94109-4719,CA,(415) 749-3525,No Data,(415) 749-3527,No Data,07/01/1980,No Data,N,No Data,No Data,54.0,Unified School District,60,Elementary Schools (Public),TRAD,Traditional,ELEM,Elementary,K-5,K-5,N,N,N,No Data,37.789726,-122.41921,Ronnie,Louie,09/17/2024,N,Redding ES,790.0,Redding ES
77,38684786041487.0,0634410,05654,Active,San Francisco,San Francisco Unified,Revere (Paul) Elementary,555 Tompkins Avenue,555 Tompkins Ave.,San Francisco,94110-6144,CA,555 Tompkins Avenue,555 Tompkins Ave.,San Francisco,94110-6144,CA,(415) 695-5656,No Data,(415) 647-0878,No Data,07/01/1980,No Data,N,No Data,No Data,54.0,Unified School District,60,Elementary Schools (Public),TRAD,Traditional,ELEM,Elementary,K-8,K-8,N,N,N,No Data,37.737142,-122.41317,Angel,Vargas Rico,08/19/2025,Y,Revere (Paul) K-8,760.0,Revere (Paul) K-8
78,38684786089775.0,0634410,05661,Active,San Francisco,San Francisco Unified,Rooftop Elementary,443 Burnett Avenue,443 Burnett Ave.,San Francisco,94131-1330,CA,443 Burnett Avenue,443 Burnett Ave.,San Francisco,94131-1330,CA,(415) 695-5692,No Data,(415) 695-5429,No Data,07/01/1980,No Data,N,No Data,No Data,54.0,Unified School District,60,Elementary Schools (Public),TRAD,Traditional,ELEM,Elementary,K-8,K-8,N,N,N,No Data,37.754418,-122.44388,Darren,Kawaii,02/09/2023,N,Rooftop K-8,796.0,Rooftop K-8
79,38684786059901.0,0634410,05662,Active,San Francisco,San Francisco Unified,Roosevelt Middle,460 Arguello Boulevard,460 Arguello Blvd.,San Francisco,94118-2505,CA,460 Arguello Boulevard,460 Arguello Blvd.,San Francisco,94118-2505,CA,(415) 750-8446,No Data,(415) 750-8455,No Data,07/01/1980,No Data,N,No Data,No Data,54.0,Unified School District,62,Intermediate/Middle Schools (Public),TRAD,Traditional,INTMIDJR,Intermediate/Middle/Junior High,6-8,6-8,N,N,N,No Data,37.782249,-122.45895,Emily,Leicham,12/07/2021,Y,Roosevelt MS,797.0,Roosevelt MS
80,38684786093488.0,0634410,05663,Active,San Francisco,San Francisco Unified,San Francisco Community Alternative,125 Excelsior Avenue,125 Excelsior Ave.,San Francisco,94112-2041,CA,125 Excelsior Avenue,125 Excelsior Ave.,San Francisco,94112-2041,CA,(415) 469-4739,No Data,(415) 337-6879,No Data,07/01/1980,No Data,N,No Data,No Data,54.0,Unified School District,60,Elementary Schools (Public),TRAD,Traditional,ELEM,Elementary,K-8,K-8,N,N,N,No Data,37.725815,-122.43262,Lisa,Gonzalez,08/19/2025,N,SF Community K-8,493.0,SF Community K-8
81,38684780119875.0,0634410,12494,Active,San Francisco,San Francisco Unified,S.F. International High,655 DeHaro Street,655 DeHaro St.,San Francisco,94107-2727,CA,655 DeHaro Street,655 DeHaro St.,San Francisco,94107-2727,CA,(415) 695-5781,No Data,(415) 695-5402,www.sfusd.edu,08/24/2009,No Data,N,No Data,No Data,54.0,Unified School District,63,Alternative Schools of Choice,ALTSOC,Alternative School of Choice,HS,High School,8-12,9-12,N,N,N,No Data,37.761720,-122.40062,Nicholas,Chan,02/09/2023,N,SF International HS,621.0,SF International HS
82,38684780123117.0,0634410,12788,Active,San Francisco,San Francisco Unified,San Francisco Public Montessori,2340 Jackson Street,2340 Jackson St.,San Francisco,94115-1323,CA,2340 Jackson Street,2340 Jackson St.,San Francisco,94115-1323,CA,(415) 749-3544,No Data,(415) 749-3494,www.sfpublicmontessori.com,08/16/2010,No Data,N,No Data,No Data,54.0,Unified School District,60,Elementary Schools (Public),TRAD,Traditional,ELEM,Elementary,K-5,K-5,N,N,N,No Data,37.792616,-122.43354,Monette,Benitez,02/09/2023,N,SF Public Montessori ES,814.0,SF Public Montessori ES
83,38684786041545.0,0634410,05664,Active,San Francisco,San Francisco Unified,Sanchez Elementary,325 Sanchez Street,325 Sanchez St.,San Francisco,94114-1615,CA,325 Sanchez Street,325 Sanchez St.,San Francisco,94114-1615,CA,(415) 241-6380,No Data,(415) 522-6729,No Data,07/01/1980,No Data,N,No Data,No Data,54.0,Unified School District,60,Elementary Schools (Public),TRAD,Traditional,ELEM,Elementary,K-5,K-5,N,N,N,No Data,37.763967,-122.43076,Ann,Marin,02/13/2019,Y,Sanchez ES,816.0,Sanchez ES
84,38684786041289.0,0634410,05636,Active,San Francisco,San Francisco Unified,Serra (Junipero) Elementary,625 Holly Park Circle,625 Holly Park Cir.,San Francisco,94110-5815,CA,625 Holly Park Circle,625 Holly Park Cir.,San Francisco,94110-5815,CA,(415) 695-5685,No Data,(415) 920-5194,No Data,07/01/1980,No Data,N,No Data,No Data,54.0,Unified School District,60,Elementary Schools (Public),TRAD,Traditional,ELEM,Elementary,K-5,K-5,N,N,N,No Data,37.736733,-122.42113,Katerina,Palomares,12/07/2021,Y,Serra (Junipero) ES,656.0,Serra (Junipero) ES
85,38684786041560.0,0634410,05667,Active,San Francisco,San Francisco Unified,Sheridan Elementary,431 Capitol Avenue,431 Capitol Ave.,San Francisco,94112-2934,CA,431 Capitol Avenue,431 Capitol Ave.,San Francisco,94112-2934,CA,(415) 469-4743,No Data,(415) 469-4089,No Data,07/01/1980,No Data,N,No Data,No Data,54.0,Unified School District,60,Elementary Schools (Public),TRAD,Traditional,ELEM,Elementary,K-5,K-5,N,N,N,No Data,37.714331,-122.45913,Dina,Edwards,02/09/2023,N,Sheridan ES,820.0,Sheridan ES
86,38684786041578.0,0634410,05668,Active,San Francisco,San Francisco Unified,Sherman Elementary,1651 Union Street,1651 Union St.,San Francisco,94123-4506,CA,1651 Union Street,1651 Union St.,San Francisco,94123-4506,CA,(415) 749-3530,No Data,(415) 749-3433,No Data,07/01/1980,No Data,N,No Data,No Data,54.0,Unified School District,60,Elementary Schools (Public),TRAD,Traditional,ELEM,Elementary,K-5,K-5,N,N,N,No Data,37.798273,-122.42620,Helen,Parker,02/09/2023,N,Sherman ES,823.0,Sherman ES
87,38684786040851.0,0634410,05598,Active,San Francisco,San Francisco Unified,Sloat (Commodore) Elementary,50 Darien Way,50 Darien Way,San Francisco,94127-1902,CA,50 Darien Way,50 Darien Way,San Francisco,94127-1902,CA,(415) 759-2807,No Data,(415) 759-2843,No Data,07/01/1980,No Data,N,No Data,No Data,54.0,Unified School District,60,Elementary Schools (Public),TRAD,Traditional,ELEM,Elementary,K-5,K-5,N,N,N,No Data,37.731881,-122.47096,Fowzigiah,Abdolcader,02/09/2023,N,Sloat (Commodore) ES,488.0,Sloat (Commodore) ES
88,38684786041594.0,0634410,05670,Active,San Francisco,San Francisco Unified,Spring Valley Elementary,1451 Jackson Street,1451 Jackson St.,San Francisco,94109-3115,CA,1451 Jackson Street,1451 Jackson St.,San Francisco,94109-3115,CA,(415) 749-3535,No Data,(415) 749-3555,No Data,07/01/1980,No Data,N,No Data,No Data,54.0,Unified School District,60,Elementary Schools (Public),TRAD,Traditional,ELEM,Elementary,K-5,K-5,N,N,N,No Data,37.794403,-122.41899,Jessica,Arnott,08/24/2022,Y,Spring Valley Science ES,834.0,Spring Valley Science ES
89,38684786041529.0,0634410,05660,Active,San Francisco,San Francisco Unified,Stevenson (Robert Louis) Elementary,2051 34th Avenue,2051 34th Ave.,San Francisco,94116-1109,CA,2051 34th Avenue,2051 34th Ave.,San Francisco,94116-1109,CA,(415) 759-2837,No Data,(415) 759-2844,No Data,07/01/1980,No Data,N,No Data,No Data,54.0,Unified School District,60,Elementary Schools (Public),TRAD,Traditional,ELEM,Elementary,K-5,K-5,N,N,N,No Data,37.748857,-122.49230,Diane,Lau-Yee,02/09/2023,N,Stevenson (Robert Louis) ES,782.0,Stevenson (Robert Louis) ES
90,38684786041610.0,0634410,05672,Active,San Francisco,San Francisco Unified,Sunnyside Elementary,250 Foerster Street,250 Foerster St.,San Francisco,94112-1341,CA,250 Foerster Street,250 Foerster St.,San Francisco,94112-1341,CA,(415) 469-4746,No Data,(415) 334-3569,https://www.sunnysidesf.org/,07/01/1980,No Data,N,No Data,No Data,54.0,Unified School District,60,Elementary Schools (Public),TRAD,Traditional,ELEM,Elementary,K-5,K-5,N,N,N,No Data,37.730307,-122.44879,Sandie,Spoering,09/17/2024,N,Sunnyside ES,842.0,Sunnyside ES
91,38684786113997.0,0634410,06556,Active,San Francisco,San Francisco Unified,Sunset Elementary,1920 41st Avenue,1920 41st Ave.,San Francisco,94116-1101,CA,1920 41st Avenue,1920 41st Ave.,San Francisco,94116-1101,CA,(415) 759-2760,No Data,(415) 759-2729,No Data,08/28/1996,No Data,N,No Data,No Data,54.0,Unified School District,60,Elementary Schools (Public),TRAD,Traditional,ELEM,Elementary,K-5,K-5,N,N,N,No Data,37.750743,-122.49979,Michael,Cress,07/24/2025,N,Sunset ES,750.0,Sunset ES
92,38684786041644.0,0634410,05674,Active,San Francisco,San Francisco Unified,Sutro Elementary,235 12th Avenue,235 12th Ave.,San Francisco,94118-2103,CA,235 12th Avenue,235 12th Ave.,San Francisco,94118-2103,CA,(415) 750-8525,No Data,(415) 750-8498,No Data,07/01/1980,No Data,N,No Data,No Data,54.0,Unified School District,60,Elementary Schools (Public),TRAD,Traditional,ELEM,Elementary,K-5,K-5,N,N,N,No Data,37.783932,-122.47102,Beth,Bonfiglio,05/23/2025,Y,Sutro ES,848.0,Sutro ES
93,38684786040943.0,0634410,05604,Active,San Francisco,San Francisco Unified,Taylor (Edward R.) Elementary,423 Burrows Street,423 Burrows St.,San Francisco,94134-1449,CA,423 Burrows Street,423 Burrows St.,San Francisco,94134-1449,CA,(415) 330-1530,No Data,(415) 468-1742,No Data,07/01/1980,No Data,N,No Data,No Data,54.0,Unified School District,60,Elementary Schools (Public),TRAD,Traditional,ELEM,Elementary,K-5,K-5,N,N,N,No Data,37.728000,-122.40733,David,Norris,04/30/2021,Y,Taylor (Edward R) ES,513.0,Taylor (Edward R) ES
94,38684786115901.0,0634410,07732,Active,San Francisco,San Francisco Unified,Tenderloin Community,627 Turk Street,627 Turk St.,San Francisco,94102-3212,CA,627 Turk Street,627 Turk St.,San Francisco,94102-3212,CA,(415) 749-3567,No Data,(415) 749-3643,No Data,08/25/1998,No Data,N,No Data,No Data,54.0,Unified School District,60,Elementary Schools (Public),TRAD,Traditional,ELEM,Elementary,K-5,K-5,N,N,N,No Data,37.782061,-122.41979,Mai-Tien,Nguyen,07/24/2025,N,Tenderloin Community ES,859.0,Tenderloin Community ES
95,38684780119958.0,0634410,12526,Active,San Francisco,San Francisco Unified,Academy (The)- SF @McAteer,555 Portola Drive,555 Portola Dr.,San Francisco,94131-1616,CA,555 Portola Drive,555 Portola Dr.,San Francisco,94131-1616,CA,(415) 695-5700,No Data,(415) 695-5326,www.sotacad.org/,08/24/2009,No Data,N,No Data,No Data,54.0,Unified School District,63,Alternative Schools of Choice,ALTSOC,Alternative School of Choice,HS,High School,9-12,9-12,N,N,N,No Data,37.745874,-122.44998,Hollie,Mack,05/23/2025,N,The Academy - SF @ McAteer HS,832.0,The Academy - SF @ McAteer HS
96,38684786041685.0,0634410,05676,Active,San Francisco,San Francisco Unified,Ulloa Elementary,2650 42nd Avenue,2650 42nd Ave.,San Francisco,94116-2714,CA,2650 42nd Avenue,2650 42nd Ave.,San Francisco,94116-2714,CA,(415) 759-2841,No Data,(415) 759-2845,No Data,07/01/1980,No Data,N,No Data,No Data,54.0,Unified School District,60,Elementary Schools (Public),TRAD,Traditional,ELEM,Elementary,K-5,K-5,N,N,N,No Data,37.737302,-122.49995,Son-Hui (Sonny),Wong,07/24/2025,Y,Ulloa ES,862.0,Ulloa ES
97,38684786041701.0,0634410,05677,Active,San Francisco,San Francisco Unified,Visitacion Valley Elementary,55 Schwerin Street,55 Schwerin St.,San Francisco,94134-2742,CA,55 Schwerin Street,55 Schwerin St.,San Francisco,94134-2742,CA,(415) 469-4796,No Data,(415) 469-4099,No Data,07/01/1980,No Data,N,No Data,No Data,54.0,Unified School District,60,Elementary Schools (Public),TRAD,Traditional,ELEM,Elementary,K-5,K-5,N,N,N,No Data,37.712680,-122.41036,Cephus,Johnson,09/17/2024,N,Visitacion Valley ES,867.0,Visitacion Valley ES
98,38684786059919.0,0634410,05678,Active,San Francisco,San Francisco Unified,Visitacion Valley Middle,1971 Visitacion Avenue,1971 Visitacion Ave.,San Francisco,94134-2700,CA,1971 Visitacion Avenue,1971 Visitacion Ave.,San Francisco,94134-2700,CA,(415) 469-4590,No Data,(415) 469-4703,No Data,07/01/1980,No Data,N,No Data,No Data,54.0,Unified School District,62,Intermediate/Middle Schools (Public),TRAD,Traditional,INTMIDJR,Intermediate/Middle/Junior High,6-8,6-8,N,N,N,No Data,37.715632,-122.41241,Maya,Baker,09/17/2024,Y,Visitacion Valley MS,868.0,Visitacion Valley MS
99,38684783830205.0,0634410,07845,Active,San Francisco,San Francisco Unified,Wallenberg (Raoul) Traditional High,40 Vega Street,40 Vega St.,San Francisco,94115-3826,CA,40 Vega Street,40 Vega St.,San Francisco,94115-3826,CA,(415) 749-3469,No Data,(415) 346-7303,No Data,07/01/1980,No Data,N,No Data,No Data,54.0,Unified School District,66,High Schools (Public),TRAD,Traditional,HS,High School,9-12,9-12,N,N,N,No Data,37.780171,-122.44575,Tanya,Harris,08/08/2024,Y,Wallenberg (Raoul) HS,785.0,Wallenberg (Raoul) HS
100,38684783839081.0,0634410,05617,Active,San Francisco,San Francisco Unified,Washington (George) High,600 32nd Avenue,600 32nd Ave.,San Francisco,94121-2733,CA,600 32nd Avenue,600 32nd Ave.,San Francisco,94121-2733,CA,(415) 750-8400,No Data,(415) 750-8417,No Data,07/01/1980,No Data,N,No Data,No Data,54.0,Unified School District,66,High Schools (Public),TRAD,Traditional,HS,High School,9-12,9-12,N,N,N,No Data,37.777781,-122.49203,John,Schlauraff,12/07/2021,Y,Washington (George) HS,571.0,Washington (George) HS
101,38684786040893.0,0634410,05600,Active,San Francisco,San Francisco Unified,Webster (Daniel) Elementary,465 Missouri Street,465 Missouri St.,San Francisco,94107-2826,CA,465 Missouri Street,465 Missouri St.,San Francisco,94107-2826,CA,(415) 695-5787,No Data,(415) 826-6813,No Data,07/01/1980,No Data,N,No Data,No Data,54.0,Unified School District,60,Elementary Schools (Public),TRAD,Traditional,ELEM,Elementary,K-5,K-5,N,N,N,No Data,37.760489,-122.39623,Anita,Parameswaran,09/17/2024,Y,Webster (Daniel) ES,497.0,Webster (Daniel) ES
102,38684783830031.0,0634410,05653,Active,San Francisco,San Francisco Unified,Wells (Ida B.) High,1099 Hayes Street,1099 Hayes St.,San Francisco,94117-1621,CA,1099 Hayes Street,1099 Hayes St.,San Francisco,94117-1621,CA,(415) 241-6315,No Data,(415) 241-6317,No Data,07/01/1980,No Data,N,No Data,No Data,54.0,Unified School District,68,Continuation High Schools,CON,Continuation School,HS,High School,9-12,9-12,N,N,N,No Data,37.775392,-122.43446,Catherine,Pringle,02/09/2023,N,Wells (Ida B.) HS,,
103,38684786041727.0,0634410,05679,Active,San Francisco,San Francisco Unified,West Portal Elementary,5 Lenox Way,5 Lenox Way,San Francisco,94127-1111,CA,5 Lenox Way,5 Lenox Way,San Francisco,94127-1111,CA,(415) 759-2846,No Data,(415) 242-2526,No Data,07/01/1980,No Data,N,No Data,No Data,54.0,Unified School District,60,Elementary Schools (Public),TRAD,Traditional,ELEM,Elementary,K-5,K-5,N,N,N,No Data,37.743572,-122.46468,Pamela,Grotts Aguilar,07/24/2025,Y,West Portal ES,876.0,West Portal ES
104,38684786041131.0,0634410,08967,Active,San Francisco,San Francisco Unified,Yick Wo Elementary,2245 Jones Street,2245 Jones St.,San Francisco,94133-2207,CA,2245 Jones Street,2245 Jones St.,San Francisco,94133-2207,CA,(415) 749-3540,No Data,(415) 749-3543,No Data,07/01/1980,No Data,N,No Data,No Data,54.0,Unified School District,60,Elementary Schools (Public),TRAD,Traditional,ELEM,Elementary,K-5,K-5,N,N,N,No Data,37.801906,-122.41630,Alfred,Sanchez,09/17/2024,N,Wo (Yick) ES,801.0,Wo (Yick) ES
105,38684786113245.0,0634410,05360,Active,San Francisco,San Francisco Unified,Yu (Alice Fong) Elementary,1541 12th Avenue,1541 12th Ave.,San Francisco,94122-3503,CA,1541 12th Avenue,1541 12th Ave.,San Francisco,94122-3503,CA,(415) 759-2764,No Data,(415) 242-2507,No Data,09/05/1995,No Data,N,No Data,No Data,54.0,Unified School District,60,Elementary Schools (Public),TRAD,Traditional,ELEM,Elementary,K-8,K-8,N,N,N,No Data,37.759405,-122.46931,Kevin,Chan,09/02/2025,Y,Yu (Alice Fong) K-8,485.0,Yu (Alice Fong) K-8
